NORAD_CAT_ID,OBJECT_NAME,OBJECT_TYPE,EPOCH,MEAN_MOTION,ECCENTRICITY,INCLINATION,RA_OF_ASC_NODE,ARG_OF_PERICENTER,MEAN_ANOMALY,BSTAR,MEAN_MOTION_DOT,MEAN_MOTION_DDOT,TLE_LINE0,TLE_LINE1,TLE_LINE2,SEMIMAJOR_AXIS,PERIOD,APOGEE,PERIGEE,DECAYED
52618.0,STARLINK-3983,PAYLOAD,2022-07-18 12:00:00,15.35743064,0.0001131,53.2175,121.7679,94.4081,328.5544,-0.03302,-0.01068904,0.0,0 STARLINK-3983,1 52618U 22052W   22199.50001157 -.01068904  00000-0 -33020-1 0  9994,2 52618  53.2175 121.7679 0001131  94.4081 328.5544 15.35743064 10530,6836.851,93.766,459.49,457.943,0.0
52618.0,STARLINK-3983,PAYLOAD,2022-07-18 14:00:01,15.35551407,0.0001293,53.2174,121.3772,80.1292,83.7842,-0.033111,-0.01065572,0.0,0 STARLINK-3983,1 52618U 22052W   22199.58334491 -.01065572  00000-0 -33111-1 0  9991,2 52618  53.2174 121.3772 0001293  80.1292  83.7842 15.35551407  1308,6837.42,93.777,460.169,458.401,0.0
52618.0,STARLINK-3983,PAYLOAD,2022-07-18 22:00:00,15.34792447,0.0001348,53.2176,119.8172,82.1804,124.9625,-0.0339579999999999,-0.01066419,0.0,0 STARLINK-3983,1 52618U 22052W   22199.91667824 -.01066419  00000-0 -33958-1 0  9997,2 52618  53.2176 119.8172 0001348  82.1804 124.9625 15.34792447  1305,6839.674,93.824,462.461,460.617,0.0
52618.0,STARLINK-3983,PAYLOAD,2022-07-19 04:00:00,15.342224800000002,0.0001347,53.2175,118.6491,77.16199999999998,71.8042,-0.034559,-0.01065727,0.0,0 STARLINK-3983,1 52618U 22052W   22200.16667824 -.01065727  00000-0 -34559-1 0  9996,2 52618  53.2175 118.6491 0001347  77.1620  71.8042 15.34222480 10638,6841.368,93.859,464.154,462.311,0.0
52618.0,STARLINK-3983,PAYLOAD,2022-07-19 14:00:01,15.33272392,0.0001196,53.2174,116.7006,92.5596,198.3068,-0.035577,-0.0106448,0.0,0 STARLINK-3983,1 52618U 22052W   22200.58334491 -.01064480  00000-0 -35577-1 0  9999,2 52618  53.2174 116.7006 0001196  92.5596 198.3068 15.33272392  1306,6844.194,93.917,466.877,465.24,0.0
52618.0,STARLINK-3983,PAYLOAD,2022-07-19 22:00:00,15.32514545,0.0001219,53.2175,115.1461,107.1932,224.1642,-0.036531,-0.0106688,0.0,0 STARLINK-3983,1 52618U 22052W   22200.91667824 -.01066880  00000-0 -36531-1 0  9992,2 52618  53.2175 115.1461 0001219 107.1932 224.1642 15.32514545  1302,6846.45,93.963,469.15,467.48,0.0
52618.0,STARLINK-3983,PAYLOAD,2022-07-20 12:00:00,15.31186402,0.0001167,53.2173,112.4284,94.3307,215.6922,-0.038173,-0.01068983,0.0,0 STARLINK-3983,1 52618U 22052W   22201.50001157 -.01068983  00000-0 -38173-1 0  9999,2 52618  53.2173 112.4284 0001167  94.3307 215.6922 15.31186402 10838,6850.408,94.045,473.073,471.474,0.0
52618.0,STARLINK-3983,PAYLOAD,2022-07-20 14:00:01,15.30993402,0.0001107,53.2173,112.04,86.9209,322.6847,-0.038202,-0.01063791,0.0,0 STARLINK-3983,1 52618U 22052W   22201.58334491 -.01063791  00000-0 -38202-1 0  9992,2 52618  53.2173 112.0400 0001107  86.9209 322.6847 15.30993402  1308,6850.984,94.057,473.608,472.091,0.0
52618.0,STARLINK-3983,PAYLOAD,2022-07-20 22:00:01,15.30236003,0.0001271,53.2174,110.4912,70.9843,16.4378,-0.039242,-0.01066955,0.0,0 STARLINK-3983,1 52618U 22052W   22201.91668981 -.01066955  00000-0 -39242-1 0  9993,2 52618  53.2174 110.4912 0001271  70.9843  16.4378 15.30236003  1302,6853.245,94.103,475.981,474.239,0.0
52618.0,STARLINK-3983,PAYLOAD,2022-07-21 06:00:00,15.29475351,0.0001252,53.2171,108.9439,87.1717,37.028,-0.040062,-0.01064045,0.0,0 STARLINK-3983,1 52618U 22052W   22202.25001157 -.01064045  00000-0 -40062-1 0  9997,2 52618  53.2171 108.9439 0001252  87.1717  37.0280 15.29475351 10955,6855.517,94.15,478.24,476.523,0.0
52618.0,STARLINK-3983,PAYLOAD,2022-07-21 14:00:01,15.28715626,0.0001317,53.2172,107.3958,81.1379,79.0559,-0.041037,-0.01064582,0.0,0 STARLINK-3983,1 52618U 22052W   22202.58335648 -.01064582  00000-0 -41037-1 0  9997,2 52618  53.2172 107.3958 0001317  81.1379  79.0559 15.28715626  1300,6857.788000000001,94.197,480.556,478.75,0.0
52618.0,STARLINK-3983,PAYLOAD,2022-07-21 22:00:00,15.27955323,0.0001386999999999,53.2174,105.8524,81.1124,114.0336,-0.041939,-0.01062958,0.0,0 STARLINK-3983,1 52618U 22052W   22202.91667824 -.01062958  00000-0 -41939-1 0  9994,2 52618  53.2174 105.8524 0001387  81.1124 114.0336 15.27955323  1301,6860.062,94.244,482.879,480.976,0.0
52618.0,STARLINK-3983,PAYLOAD,2022-07-22 06:00:00,15.27198031,0.0001331999999999,53.217,104.3103,95.5466,133.7016,-0.043058,-0.0106598999999999,0.0,0 STARLINK-3983,1 52618U 22052W   22203.25001157 -.01065990  00000-0 -43058-1 0  9996,2 52618  53.2170 104.3103 0001332  95.5466 133.7016 15.27198031  1300,6862.33,94.29,485.109,483.281,0.0
52618.0,STARLINK-3983,PAYLOAD,2022-07-22 20:00:01,15.25867467,0.0001388,53.2175,101.6137,85.1682,111.5666,-0.044748,-0.01064008,0.0,0 STARLINK-3983,1 52618U 22052W   22203.83334491 -.01064008  00000-0 -44748-1 0  9996,2 52618  53.2175 101.6137 0001388  85.1682 111.5666 15.25867467 11195,6866.319,94.373,489.137,487.231,0.0
52618.0,STARLINK-3983,PAYLOAD,2022-07-22 22:00:00,15.25676989,0.0001267,53.2173,101.2297,88.2818,206.4367,-0.044943,-0.01062591,0.0,0 STARLINK-3983,1 52618U 22052W   22203.91667824 -.01062591  00000-0 -44943-1 0  9996,2 52618  53.2173 101.2297 0001267  88.2818 206.4367 15.25676989  1308,6866.89,94.384,489.625,487.885,0.0
52618.0,STARLINK-3983,PAYLOAD,2022-07-23 14:00:01,15.24156378,0.0001146,53.2172,98.1553,77.7885,278.8138,-0.046955,-0.01060537,0.0,0 STARLINK-3983,1 52618U 22052W   22204.58335648 -.01060537  00000-0 -46955-1 0  9999,2 52618  53.2172  98.1553 0001146  77.7885 278.8138 15.24156378  1302,6871.456999999999,94.478,494.109,492.534,0.0
52618.0,STARLINK-3983,PAYLOAD,2022-07-23 22:00:00,15.23399723,0.0001249,53.2173,96.6229,67.8708,318.2061,-0.048224,-0.01064448,0.0,0 STARLINK-3983,1 52618U 22052W   22204.91667824 -.01064448  00000-0 -48224-1 0  9996,2 52618  53.2173  96.6229 0001249  67.8708 318.2061 15.23399723  1300,6873.732,94.525,496.455,494.73800000000006,0.0
52618.0,STARLINK-3983,PAYLOAD,2022-07-24 14:00:01,15.21879156,0.0001267,53.2172,93.5592,70.0297,12.3916,-0.050365,-0.01062671,0.0,0 STARLINK-3983,1 52618U 22052W   22205.58334491 -.01062671  00000-0 -50365-1 0  9996,2 52618  53.2172  93.5592 0001267  70.0297  12.3916 15.21879156  1309,6878.31,94.62,501.046,499.30300000000005,0.0
52618.0,STARLINK-3983,PAYLOAD,2022-07-24 22:00:00,15.21120441,0.0001543,53.2172,92.0324,53.8767,55.3455,-0.051546,-0.01063448,0.0,0 STARLINK-3983,1 52618U 22052W   22205.91667824 -.01063448  00000-0 -51546-1 0  9997,2 52618  53.2172  92.0324 0001543  53.8767  55.3455 15.21120441  1305,6880.597,94.667,503.523,501.4,0.0
52618.0,STARLINK-3983,PAYLOAD,2022-07-25 12:00:00,15.19789694,0.0001238,53.2174,89.3605,68.4955,355.4362,-0.05346,-0.01060804,0.0,0 STARLINK-3983,1 52618U 22052W   22206.50001157 -.01060804  00000-0 -53460-1 0  9994,2 52618  53.2174  89.3605 0001238  68.4955 355.4362 15.19789694 11603,6884.613,94.75,507.33,505.625,0.0
52618.0,STARLINK-3983,PAYLOAD,2022-07-25 14:00:01,15.19602161,0.0001408,53.2172,88.9792,72.736,87.3537,-0.053991,-0.0106512,0.0,0 STARLINK-3983,1 52618U 22052W   22206.58334491 -.01065120  00000-0 -53991-1 0  9997,2 52618  53.2172  88.9792 0001408  72.7360  87.3537 15.19602161  1304,6885.179,94.762,508.013,506.075,0.0
52618.0,STARLINK-3983,PAYLOAD,2022-07-25 22:00:00,15.18840383,0.0001575,53.2173,87.4576,60.3552,123.7986,-0.054961,-0.01060838,0.0,0 STARLINK-3983,1 52618U 22052W   22206.91667824 -.01060838  00000-0 -54961-1 0  9992,2 52618  53.2173  87.4576 0001575  60.3552 123.7986 15.18840383  1302,6887.481,94.809,510.431,508.261,0.0
52618.0,STARLINK-3983,PAYLOAD,2022-07-26 04:00:01,15.18270643,0.00013,53.2171,86.3171,78.7145,32.9513,-0.0558139999999999,-0.0107305,0.0,0 STARLINK-3983,1 52618U 22052W   22207.16668981 -.01073050  00000-0 -55814-1 0  9993,2 52618  53.2171  86.3171 0001300  78.7145  32.9513 15.18270643 11704,6889.204000000002,94.845,511.965,510.173,0.0
52618.0,STARLINK-3983,PAYLOAD,2022-07-26 14:00:01,15.17322962,0.0001389,53.2172,84.415,81.3129,148.232,-0.057609,-0.01077302,0.0,0 STARLINK-3983,1 52618U 22052W   22207.58334491 -.01077302  00000-0 -57609-1 0  9993,2 52618  53.2172  84.4150 0001389  81.3129 148.2320 15.17322962  1303,6892.071999999999,94.904,514.895,512.98,0.0
52618.0,STARLINK-3983,PAYLOAD,2022-07-26 20:00:01,15.16751625,0.0001597,53.2174,83.2778,56.1641,99.4609,-0.058369,-0.01073996,0.0,0 STARLINK-3983,1 52618U 22052W   22207.83334491 -.01073996  00000-0 -58369-1 0  9990,2 52618  53.2174  83.2778 0001597  56.1641  99.4609 15.16751625 11802,6893.803000000001,94.94,516.769,514.567,0.0
52618.0,STARLINK-3983,PAYLOAD,2022-07-26 22:00:00,15.16561549,0.0001543,53.2173,82.8989,59.8062,191.0644,-0.058653,-0.01073381,0.0,0 STARLINK-3983,1 52618U 22052W   22207.91667824 -.01073381  00000-0 -58653-1 0  9992,2 52618  53.2173  82.8989 0001543  59.8062 191.0644 15.16561549  1304,6894.379,94.952,517.308,515.18,0.0
52618.0,STARLINK-3983,PAYLOAD,2022-07-27 12:00:00,15.15233037,0.0001411,53.2173,80.2454,77.132,118.8644,-0.060989,-0.01074396,0.0,0 STARLINK-3983,1 52618U 22052W   22208.50001157 -.01074396  00000-0 -60989-1 0  9991,2 52618  53.2173  80.2454 0001411  77.1320 118.8644 15.15233037 11908,6898.408,95.035,521.247,519.3,0.0
52618.0,STARLINK-3983,PAYLOAD,2022-07-27 14:00:01,15.15042673,0.00013,53.2173,79.8668,82.1186,208.6678,-0.061298,-0.01074008,0.0,0 STARLINK-3983,1 52618U 22052W   22208.58334491 -.01074008  00000-0 -61298-1 0  9993,2 52618  53.2173  79.8668 0001300  82.1186 208.6678 15.15042673  1304,6898.986,95.047,521.748,519.9540000000002,0.0
52618.0,STARLINK-3983,PAYLOAD,2022-07-27 22:00:00,15.14283855,0.000134,53.2173,78.3561,71.2433,238.1299,-0.062661,-0.01074441,0.0,0 STARLINK-3983,1 52618U 22052W   22208.91667824 -.01074441  00000-0 -62661-1 0  9995,2 52618  53.2173  78.3561 0001340  71.2433 238.1299 15.14283855  1303,6901.291,95.094,524.08,522.231,0.0
